NORAD_CAT_ID,OBJECT_NAME,OBJECT_TYPE,EPOCH,MEAN_MOTION,ECCENTRICITY,INCLINATION,RA_OF_ASC_NODE,ARG_OF_PERICENTER,MEAN_ANOMALY,BSTAR,MEAN_MOTION_DOT,MEAN_MOTION_DDOT,TLE_LINE0,TLE_LINE1,TLE_LINE2,SEMIMAJOR_AXIS,PERIOD,APOGEE,PERIGEE,DECAYED
53913.0,STARLINK-5053,PAYLOAD,2024-03-29 20:26:16,15.08845035,0.0001357,53.2156,260.6891,81.0182,279.0964,0.00023954,3.527e-05,0.0,0 STARLINK-5053,1 53913U 22119AD  24089.85158075  .00003527  00000-0  23954-3 0  9991,2 53913  53.2156 260.6891 0001357  81.0182 279.0964 15.08845035 84663,6917.865,95.437,540.669,538.791,0.0
53913.0,STARLINK-5053,PAYLOAD,2024-03-30 04:23:12,15.08849608,0.0001363,53.216,259.2022,81.6234,278.4912,0.00030946,4.642e-05,0.0,0 STARLINK-5053,1 53913U 22119AD  24090.18277902  .00004642  00000-0  30946-3 0  9998,2 53913  53.2160 259.2022 0001363  81.6234 278.4912 15.08849608 84294,6917.851,95.437,540.659,538.773,0.0
53913.0,STARLINK-5053,PAYLOAD,2024-03-30 10:44:45,15.08848593,0.0002559,53.2139,258.0132,82.1455,277.9827,0.00040331,6.138e-05,0.0,0 STARLINK-5053,1 53913U 22119AD  24090.44774439  .00006138  00000-0  40331-3 0  9995,2 53913  53.2139 258.0132 0002559  82.1455 277.9827 15.08848593 84750,6917.854,95.437,541.489,537.949,0.0
53913.0,STARLINK-5053,PAYLOAD,2024-03-30 20:17:04,15.0883358,0.0002129,53.2153,256.2293,81.787,278.3364,8.5316e-06,-1.53e-06,0.0,0 STARLINK-5053,1 53913U 22119AD  24090.84518899 -.00000153  00000-0  85316-5 0  9991,2 53913  53.2153 256.2293 0002129  81.7870 278.3364 15.08833580 84394,6917.9,95.438,541.238,538.292,0.0
53913.0,STARLINK-5053,PAYLOAD,2024-03-31 10:35:32,15.08846881,0.0001436,53.2161,253.5548,82.8357,277.2798,0.00021716,3.17e-05,0.0,0 STARLINK-5053,1 53913U 22119AD  24091.44134333  .00003170  00000-0  21716-3 0  9998,2 53913  53.2161 253.5548 0001436  82.8357 277.2798 15.08846881 84485,6917.859,95.437,540.718,538.731,0.0
53913.0,STARLINK-5053,PAYLOAD,2024-03-31 16:57:04,15.08844414,0.0001428,53.2147,252.3649,82.1978,277.9177,0.00022326,3.267e-05,0.0,0 STARLINK-5053,1 53913U 22119AD  24091.70630362  .00003267  00000-0  22326-3 0  9995,2 53913  53.2147 252.3649 0001428  82.1978 277.9177 15.08844414 84940,6917.867,95.437,540.72,538.744,0.0
53913.0,STARLINK-5053,PAYLOAD,2024-04-01 13:37:05,15.08835051,0.000139,53.216,248.4999,87.6441,272.471,5.891e-05,6.5e-06,0.0,0 STARLINK-5053,1 53913U 22119AD  24092.56742701  .00000650  00000-0  58910-4 0  9993,2 53913  53.2160 248.4999 0001390  87.6441 272.4710 15.08835051 85077,6917.896,95.438,540.722,538.799,0.0
53913.0,STARLINK-5053,PAYLOAD,2024-04-01 19:58:37,15.08841251,0.0001679,53.218,247.307,111.2451,248.872,0.00013101,1.798e-05,0.0,0 STARLINK-5053,1 53913U 22119AD  24092.83238399  .00001798  00000-0  13101-3 0  9992,2 53913  53.2180 247.3070 0001679 111.2451 248.8720 15.08841251 84696,6917.877,95.437,540.903,538.58,0.0
53913.0,STARLINK-5053,PAYLOAD,2024-04-02 13:27:52,15.08841346,0.0001541,53.2171,244.0359,104.2314,255.8849,6.0029e-05,6.68e-06,0.0,0 STARLINK-5053,1 53913U 22119AD  24093.56102506  .00000668  00000-0  60029-4 0  9990,2 53913  53.2171 244.0359 0001541 104.2314 255.8849 15.08841346 85223,6917.876,95.437,540.807,538.675,0.0
53913.0,STARLINK-5053,PAYLOAD,2024-04-02 19:49:25,15.08840591,0.0001506,53.2178,242.8471,104.5854,255.5305,7.3337e-05,8.79e-06,0.0,0 STARLINK-5053,1 53913U 22119AD  24093.82598585  .00000879  00000-0  73337-4 0  9995,2 53913  53.2178 242.8471 0001506 104.5854 255.5305 15.08840591 85263,6917.879,95.438,540.785,538.702,0.0
53913.0,STARLINK-5053,PAYLOAD,2024-04-03 13:18:39,15.08837156,0.000152,53.2174,239.5754,108.7351,251.3806,0.00015578,2.192e-05,0.0,0 STARLINK-5053,1 53913U 22119AD  24094.55462946  .00002192  00000-0  15578-3 0  9999,2 53913  53.2174 239.5754 0001520 108.7351 251.3806 15.08837156 85375,6917.889,95.438,540.806,538.703,0.0
53913.0,STARLINK-5053,PAYLOAD,2024-04-03 16:29:26,15.08837961,0.0001483,53.2173,238.9836,91.2993,268.8169,0.00017701,2.53e-05,0.0,0 STARLINK-5053,1 53913U 22119AD  24094.68711061  .00002530  00000-0  17701-3 0  9994,2 53913  53.2173 238.9836 0001483  91.2993 268.8169 15.08837961 84978,6917.887,95.438,540.778,538.726,0.0
53913.0,STARLINK-5053,PAYLOAD,2024-04-04 14:44:50,15.08833097,0.0001439,53.2179,234.8235,93.2456,266.8701,3.2738e-05,2.33e-06,0.0,0 STARLINK-5053,1 53913U 22119AD  24095.61447356  .00000233  00000-0  32738-4 0  9997,2 53913  53.2179 234.8235 0001439  93.2456 266.8701 15.08833097 85538,6917.901,95.438,540.762,538.771,0.0
53913.0,STARLINK-5053,PAYLOAD,2024-04-04 16:20:13,15.08833419,0.0001376,53.218,234.526,90.1732,269.9417,3.9257e-05,3.37e-06,0.0,0 STARLINK-5053,1 53913U 22119AD  24095.68071370  .00000337  00000-0  39257-4 0  9991,2 53913  53.2180 234.5260 0001376  90.1732 269.9417 15.08833419 85129,6917.901,95.438,540.717,538.814,0.0
53913.0,STARLINK-5053,PAYLOAD,2024-04-05 01:52:31,15.08845553,0.0001346,53.2183,232.7395,92.0148,268.0998,0.00016261,2.301e-05,0.0,0 STARLINK-5053,1 53913U 22119AD  24096.07814627  .00002301  00000-0  16261-3 0  9997,2 53913  53.2183 232.7395 0001346  92.0148 268.0998 15.08845553 85182,6917.863,95.437,540.66,538.797,0.0
53913.0,STARLINK-5053,PAYLOAD,2024-04-05 14:35:37,15.08842906,0.0001396,53.2176,230.361,98.1091,262.006,0.00014443,2.012e-05,0.0,0 STARLINK-5053,1 53913U 22119AD  24096.60806776  .00002012  00000-0  14443-3 0  9991,2 53913  53.2176 230.3610 0001396  98.1091 262.0060 15.08842906 85685,6917.872,95.437,540.702,538.771,0.0
53913.0,STARLINK-5053,PAYLOAD,2024-04-05 19:21:45,15.08852323,0.0001435,53.2174,229.4677,109.6404,250.4743,0.000224,3.28e-05,0.0,0 STARLINK-5053,1 53913U 22119AD  24096.80678107  .00003280  00000-0  22400-3 0  9998,2 53913  53.2174 229.4677 0001435 109.6404 250.4743 15.08852323 85712,6917.843,95.437,540.7,538.715,0.0
53913.0,STARLINK-5053,PAYLOAD,2024-04-06 01:43:18,15.08858497,0.0001597,53.2182,228.2786,84.0535,276.0639,0.00026732,3.971e-05,0.0,0 STARLINK-5053,1 53913U 22119AD  24097.07173771  .00003971  00000-0  26732-3 0  9994,2 53913  53.2182 228.2786 0001597  84.0535 276.0639 15.08858497 85759,6917.824,95.436,540.794,538.584,0.0
53913.0,STARLINK-5053,PAYLOAD,2024-04-06 17:37:10,15.08834007,0.0001289,53.2189,225.3059,92.6592,267.4548,-5.8102e-05,-1.212e-05,0.0,0 STARLINK-5053,1 53913U 22119AD  24097.73415025 -.00001212  00000-0 -58102-4 0  9993,2 53913  53.2189 225.3059 0001289  92.6592 267.4548 15.08834007 85432,6917.899,95.438,540.655,538.872,0.0
53913.0,STARLINK-5053,PAYLOAD,2024-04-07 07:55:38,15.08833548,0.0001321,53.2177,222.6286,88.4979,271.6164,-4.9259e-05,-1.072e-05,0.0,0 STARLINK-5053,1 53913U 22119AD  24098.33031114 -.00001072  00000-0 -49259-4 0  9990,2 53913  53.2177 222.6286 0001321  88.4979 271.6164 15.08833548 85946,6917.9,95.438,540.679,538.851,0.0
53913.0,STARLINK-5053,PAYLOAD,2024-04-07 17:27:57,15.08833631,0.0001642,53.2169,220.8455,84.9011,275.2169,9.7557e-07,-2.73e-06,0.0,0 STARLINK-5053,1 53913U 22119AD  24098.72775371 -.00000273  00000-0  97557-6 0  9990,2 53913  53.2169 220.8455 0001642  84.9011 275.2169 15.08833631 86005,6917.9,95.438,540.901,538.629,0.0
53913.0,STARLINK-5053,PAYLOAD,2024-04-08 01:24:53,15.08842507,0.0001483,53.217,219.3572,89.5625,270.5537,0.00020003,2.897e-05,0.0,0 STARLINK-5053,1 53913U 22119AD  24099.05894931  .00002897  00000-0  20003-3 0  9993,2 53913  53.2170 219.3572 0001483  89.5625 270.5537 15.08842507 85632,6917.873,95.437,540.764,538.712,0.0
53913.0,STARLINK-5053,PAYLOAD,2024-04-08 14:07:58,15.08841487,0.000139,53.2203,216.9789,89.4288,270.6863,0.00029949,4.482e-05,0.0,0 STARLINK-5053,1 53913U 22119AD  24099.58887395  .00004482  00000-0  29949-3 0  9997,2 53913  53.2203 216.9789 0001390  89.4288 270.6863 15.08841487 86138,6917.876,95.437,540.702,538.779,0.0
53913.0,STARLINK-5053,PAYLOAD,2024-04-09 13:58:45,15.08846178,0.0002324,53.2146,212.5174,94.6227,265.5031,0.0002194,3.206e-05,0.0,0 STARLINK-5053,1 53913U 22119AD  24100.58247181  .00003206  00000-0  21940-3 0  9999,2 53913  53.2146 212.5174 0002324  94.6227 265.5031 15.08846178 86281,6917.862,95.437,541.334,538.119,0.0
53913.0,STARLINK-5053,PAYLOAD,2024-04-10 13:49:32,15.08839502,0.0001347,53.2177,208.0602,80.2106,279.9038,0.00010749,1.423e-05,0.0,0 STARLINK-5053,1 53913U 22119AD  24101.57607486  .00001423  00000-0  10749-3 0  9991,2 53913  53.2177 208.0602 0001347  80.2106 279.9038 15.08839502 86012,6917.882,95.438,540.679,538.815,0.0
53913.0,STARLINK-5053,PAYLOAD,2024-04-11 13:40:19,15.08841804,0.0001222,53.2162,203.5972,79.2335,280.8795,0.00016628,2.36e-05,0.0,0 STARLINK-5053,1 53913U 22119AD  24102.56967554  .00002360  00000-0  16628-3 0  9999,2 53913  53.2162 203.5972 0001222  79.2335 280.8795 15.08841804 86581,6917.875,95.437,540.585,538.895,0.0
53913.0,STARLINK-5053,PAYLOAD,2024-04-11 23:12:38,15.08853937,0.0001309,53.2177,201.812,78.7149,281.399,0.00038483,5.844e-05,0.0,0 STARLINK-5053,1 53913U 22119AD  24102.96710944  .00005844  00000-0  38483-3 0  9995,2 53913  53.2177 201.8120 0001309  78.7149 281.3990 15.08853937 86220,6917.838,95.437,540.608,538.797,0.0
53913.0,STARLINK-5053,PAYLOAD,2024-04-12 11:55:43,15.08836572,0.0001321,53.216,199.434,92.0239,268.0905,-5.1626e-06,-3.7e-06,0.0,0 STARLINK-5053,1 53913U 22119AD  24103.49703641 -.00000370  00000-0 -51626-5 0  9997,2 53913  53.2160 199.4340 0001321  92.0239 268.0905 15.08836572 86304,6917.891,95.438,540.67,538.842,0.0
53913.0,STARLINK-5053,PAYLOAD,2024-04-12 13:31:06,15.08839924,0.0001324,53.216,199.1366,94.7318,265.3825,5.9384e-05,6.57e-06,0.0,0 STARLINK-5053,1 53913U 22119AD  24103.56327516  .00000657  00000-0  59384-4 0  9992,2 53913  53.2160 199.1366 0001324  94.7318 265.3825 15.08839924 86731,6917.881,95.438,540.662,538.83,0.0
53913.0,STARLINK-5053,PAYLOAD,2024-04-13 13:21:54,15.08844721,0.0001333,53.2157,194.6778,99.4007,260.7135,0.00025396,3.757e-05,0.0,0 STARLINK-5053,1 53913U 22119AD  24104.55687517  .00003757  00000-0  25396-3 0  9991,2 53913  53.2157 194.6778 0001333  99.4007 260.7135 15.08844721 86881,6917.866,95.437,540.653,538.809,0.0
